     2.10           G: GLONASS NAV DATA                     RINEX VERSION / TYPE
teqc  2015Jun23                         20210927 01:26:19UTCPGM / RUN BY / DATE
Linux 2.4.21-27.ELsmp|Opteron|gcc -static|Linux x86_64|=+   COMMENT
  2021     9     3   -9.313225746155D-10                    CORR TO SYSTEM TIME
                                                            END OF HEADER
16 21  9  4  0 15  0.0-2.077128738165D-05 0.000000000000D+00 0.000000000000D+00
   -4.862118652344D+03-1.269359588623D-01-9.313225746155D-10 0.000000000000D+00
    2.032006152344D+04-2.007912635803D+00-9.313225746155D-10-1.000000000000D+00
   -1.473810449219D+04-2.717218399048D+00 2.793967723846D-09 0.000000000000D+00
 4 21  9  4  0 15  0.0 1.030908897519D-04 1.818989403546D-12 0.000000000000D+00
   -2.136672070312D+04 1.330045700073D+00-4.656612873077D-09 0.000000000000D+00
    8.559705078125D+03-7.253589630127D-01 2.793967723846D-09 6.000000000000D+00
    1.102613525391D+04 3.146007537842D+00 9.313225746155D-10 0.000000000000D+00
 5 21  9  4  0 15  0.0 7.831957191229D-05 9.094947017729D-13 0.000000000000D+00
   -1.864144482422D+04-5.821142196655D-01-2.793967723846D-09 0.000000000000D+00
    1.633577636719D+04 6.215114593506D-01 9.313225746155D-10 1.000000000000D+00
   -6.072095703125D+03 3.453186035156D+00 2.793967723846D-09 0.000000000000D+00
 9 21  9  4  0 15  0.0 1.143477857113D-05 1.818989403546D-12 0.000000000000D+00
    3.101040039062D+03 1.180591583252D-01-1.862645149231D-09 0.000000000000D+00
    2.525969482422D+04 1.242637634277D-01-9.313225746155D-10-2.000000000000D+00
    1.012350097656D+03-3.546867370605D+00 9.313225746155D-10 0.000000000000D+00
10 21  9  4  0 15  0.0-7.461756467819D-05-0.000000000000D+00 0.000000000000D+00
    9.491370117188D+03 3.357419967651D-01-1.862645149231D-09 0.000000000000D+00
    1.745849560547D+04 2.169575691223D+00-9.313225746155D-10-7.000000000000D+00
    1.603435156250D+04-2.554702758789D+00-9.313225746155D-10 0.000000000000D+00
20 21  9  4  0 15  0.0-5.528423935175D-05-0.000000000000D+00 0.000000000000D+00
    7.153132812500D+03-2.413517951965D+00-1.862645149231D-09 0.000000000000D+00
    1.375945361328D+04-1.380781173706D+00-0.000000000000D+00 2.000000000000D+00
    2.024572949219D+04 1.794128417969D+00-9.313225746155D-10 0.000000000000D+00
16 21  9  4  0 45  0.0-2.077128738165D-05 0.000000000000D+00 1.800000000000D+03
   -5.461145507812D+03-5.582876205444D-01-9.313225746155D-10 0.000000000000D+00
    1.619610546875D+04-2.532507896423D+00-9.313225746155D-10-1.000000000000D+00
   -1.900033642578D+04-1.987886428833D+00 2.793967723846D-09 0.000000000000D+00
 4 21  9  4  0 45  0.0 1.030946150422D-04 1.818989403546D-12 1.800000000000D+03
   -1.857615869141D+04 1.725626945496D+00-3.725290298462D-09 0.000000000000D+00
    6.660809570312D+03-1.391208648682D+00 3.725290298462D-09 6.000000000000D+00
    1.619040283203D+04 2.554929733276D+00 0.000000000000D+00 0.000000000000D+00
 5 21  9  4  0 45  0.0 7.832143455744D-05 9.094947017729D-13 1.800000000000D+03
   -1.900744384766D+04 1.551017761230D-01-3.725290298462D-09 0.000000000000D+00
    1.702836572266D+04 1.118135452271D-01 1.862645149231D-09 1.000000000000D+00
    2.978945312500D+02 3.578675270081D+00 2.793967723846D-09 0.000000000000D+00
 9 21  9  4  0 45  0.0 1.143757253885D-05 1.818989403546D-12 1.800000000000D+03
    3.177636718750D+03-7.121562957764D-02-1.862645149231D-09 0.000000000000D+00
    2.469764843750D+04-7.373647689819D-01-9.313225746155D-10-2.000000000000D+00
   -5.328437011719D+03-3.452465057373D+00 1.862645149231D-09 0.000000000000D+00
10 21  9  4  0 45  0.0-7.461756467819D-05 0.000000000000D+00 1.800000000000D+03
    1.025848388672D+04 4.792137145996D-01-1.862645149231D-09 0.000000000000D+00
    2.070610498047D+04 1.414488792419D+00-9.313225746155D-10-7.000000000000D+00
    1.087724121094D+04-3.138278007507D+00-0.000000000000D+00 0.000000000000D+00
20 21  9  4  0 45  0.0-5.528517067432D-05-0.000000000000D+00 1.830000000000D+03
    2.330162109375D+03-2.905920982361D+00-2.793967723846D-09 0.000000000000D+00
    1.149484863281D+04-1.101044654846D+00 9.313225746155D-10 2.000000000000D+00
    2.265049853516D+04 8.605756759644D-01-9.313225746155D-10 0.000000000000D+00
16 21  9  4  1 15  0.0-2.077128738165D-05-0.000000000000D+00 3.600000000000D+03
   -6.913262695312D+03-1.057975769043D+00-0.000000000000D+00 0.000000000000D+00
    1.136845556641D+04-2.782824516296D+00-0.000000000000D+00-1.000000000000D+00
   -2.180182763672D+04-1.104513168335D+00 2.793967723846D-09 0.000000000000D+00
 5 21  9  4  1 15  0.0 7.832329720259D-05 9.094947017729D-13 3.600000000000D+03
   -1.818436523438D+04 7.245578765869D-01-3.725290298462D-09 0.000000000000D+00
    1.663014892578D+04-5.770177841187D-01 3.725290298462D-09 1.000000000000D+00
    6.644908691406D+03 3.427839279175D+00 1.862645149231D-09 0.000000000000D+00
 9 21  9  4  1 15  0.0 1.143943518400D-05 9.094947017729D-13 3.600000000000D+03
    2.719600097656D+03-4.675874710083D-01-1.862645149231D-09 0.000000000000D+00
    2.267879833984D+04-1.476990699768D+00-0.000000000000D+00-2.000000000000D+00
   -1.125507226562D+04-3.089693069458D+00 1.862645149231D-09 0.000000000000D+00
10 21  9  4  1 15  0.0-7.461942732334D-05 0.000000000000D+00 3.600000000000D+03
    1.107159619141D+04 3.825807571411D-01-2.793967723846D-09 0.000000000000D+00
    2.249573876953D+04 5.682773590088D-01-0.000000000000D+00-7.000000000000D+00
    4.882122558594D+03-3.479856491089D+00 0.000000000000D+00 0.000000000000D+00
 7 21  9  4  1 15  0.0-4.138424992561D-05-0.000000000000D+00 4.530000000000D+03
    4.587923339844D+03-1.956964492798D+00 0.000000000000D+00 0.000000000000D+00
    1.111448779297D+04 2.384838104248D+00-1.862645149231D-09 5.000000000000D+00
   -2.246946972656D+04 7.745933532715D-01 1.862645149231D-09 0.000000000000D+00
16 21  9  4  1 45  0.0-2.077221870422D-05-0.000000000000D+00 5.400000000000D+03
   -9.247543945312D+03-1.520564079285D+00 0.000000000000D+00 0.000000000000D+00
    6.355221191406D+03-2.739195823669D+00-0.000000000000D+00-1.000000000000D+00
   -2.292434863281D+04-1.343202590942D-01 2.793967723846D-09 0.000000000000D+00
 7 21  9  4  1 45  0.0-4.138424992561D-05 0.000000000000D+00 5.400000000000D+03
    1.528327636719D+03-1.425405502319D+00-9.313225746155D-10 0.000000000000D+00
    1.544834863281D+04 2.382906913757D+00-9.313225746155D-10 5.000000000000D+00
   -2.022266845703D+04 1.705446243286D+00 2.793967723846D-09 0.000000000000D+00
 5 21  9  4  1 45  0.0 7.832422852516D-05 9.094947017729D-13 5.400000000000D+03
   -1.654203027344D+04 1.057112693787D+00-2.793967723846D-09 0.000000000000D+00
    1.490028759766D+04-1.349934577942D+00 4.656612873077D-09 1.000000000000D+00
    1.247893750000D+04 3.012392997742D+00 9.313225746155D-10 0.000000000000D+00
 9 21  9  4  1 45  0.0 1.144222915173D-05 1.818989403546D-12 5.400000000000D+03
    1.410598144531D+03-1.002552032471D+00-9.313225746155D-10 0.000000000000D+00
    1.950913623047D+04-2.003383636475D+00-0.000000000000D+00-2.000000000000D+00
   -1.630691503906D+04-2.486865043640D+00 2.793967723846D-09 0.000000000000D+00
10 21  9  4  1 45  0.0-7.461942732334D-05 0.000000000000D+00 5.400000000000D+03
    1.148890039062D+04 4.265499114990D-02-2.793967723846D-09 0.000000000000D+00
    2.276616601562D+04-2.543840408325D-01-0.000000000000D+00-7.000000000000D+00
   -1.488997558594D+03-3.553383827209D+00 9.313225746155D-10 0.000000000000D+00
 7 21  9  4  2 15  0.0-4.138424992561D-05 0.000000000000D+00 7.200000000000D+03
   -5.148051757812D+02-8.460817337036D-01-9.313225746155D-10 0.000000000000D+00
    1.951761914062D+04 2.090320587158D+00 0.000000000000D+00 5.000000000000D+00
   -1.640987500000D+04 2.503303527832D+00 2.793967723846D-09 0.000000000000D+00
 5 21  9  4  2 15  0.0 7.832609117031D-05 9.094947017729D-13 7.200000000000D+03
   -1.453824121094D+04 1.125421524048D+00-1.862645149231D-09 0.000000000000D+00
    1.178765625000D+04-2.094084739685D+00 4.656612873077D-09 1.000000000000D+00
    1.734963720703D+04 2.364406585693D+00 0.000000000000D+00 0.000000000000D+00
 9 21  9  4  2 15  0.0 1.144502311945D-05 1.818989403546D-12 7.200000000000D+03
   -9.151582031250D+02-1.579745292664D+00-9.313225746155D-10 0.000000000000D+00
    1.562920703125D+04-2.260280609131D+00-0.000000000000D+00-2.000000000000D+00
   -2.009178857422D+04-1.691216468811D+00 2.793967723846D-09 0.000000000000D+00
10 21  9  4  2 15  0.0-7.461942732334D-05 0.000000000000D+00 7.200000000000D+03
    1.110293310547D+04-4.996900558472D-01-1.862645149231D-09 0.000000000000D+00
    2.165948681641D+04-9.452991485596D-01-0.000000000000D+00-7.000000000000D+00
   -7.745442382812D+03-3.353254318237D+00 1.862645149231D-09 0.000000000000D+00
 7 21  9  4  2 45  0.0-4.138424992561D-05 0.000000000000D+00 9.000000000000D+03
   -1.554883300781D+03-3.284454345703D-01-1.862645149231D-09 0.000000000000D+00
    2.281024853516D+04 1.527112960815D+00 1.862645149231D-09 5.000000000000D+00
   -1.132774316406D+04 3.106732368469D+00 2.793967723846D-09 0.000000000000D+00
 5 21  9  4  2 45  0.0 7.832795381546D-05 9.094947017729D-13 9.000000000000D+03
   -1.263890527344D+04 9.478416442871D-01-0.000000000000D+00 0.000000000000D+00
    7.446615234375D+03-2.697155952454D+00 3.725290298462D-09 1.000000000000D+00
    2.088095556641D+04 1.533819198608D+00-9.313225746155D-10 0.000000000000D+00
 9 21  9  4  2 45  0.0 1.144781708717D-05 1.818989403546D-12 9.000000000000D+03
   -4.236962402344D+03-2.091300964355D+00-0.000000000000D+00 0.000000000000D+00
    1.154229687500D+04-2.235091209412D+00-0.000000000000D+00-2.000000000000D+00
   -2.231677636719D+04-7.650432586670D-01 2.793967723846D-09 0.000000000000D+00
10 21  9  4  2 45  0.0-7.461849600077D-05 0.000000000000D+00 9.000000000000D+03
    9.615173828125D+03-1.165921211243D+00-1.862645149231D-09 0.000000000000D+00
    1.949359960938D+04-1.419953346252D+00-0.000000000000D+00-7.000000000000D+00
   -1.340527050781D+04-2.894720077515D+00 2.793967723846D-09 0.000000000000D+00
